#aV2007 12 21  0  0   .00000000      96 DD+AD WGS84 FIT  NGA
## 1458 432000.00000000   900.00000000 54455  .0000000000000
+   31     1  2  3  4  5  6  7  8  9 10 11 12 13 14 15 16 17
+         18 19 20 21 22 23 24 25 26 27 28 30 31 32  0  0  0
+          0  0  0  0  0  0  0  0  0  0  0  0  0  0  0  0  0
+          0  0  0  0  0  0  0  0  0  0  0  0  0  0  0  0  0
+          0  0  0  0  0  0  0  0  0  0  0  0  0  0  0  0  0
++         0  0  0  0  0  0  0  0  0  0  0  0  0  0  0  0  0
++         0  0  0  0  0  0  0  0  0  0  0  0  0  0  0  0  0
++         0  0  0  0  0  0  0  0  0  0  0  0  0  0  0  0  0
++         0  0  0  0  0  0  0  0  0  0  0  0  0  0  0  0  0
++         0  0  0  0  0  0  0  0  0  0  0  0  0  0  0  0  0
%c cc cc ccc ccc cccc cccc cccc cccc ccccc ccccc ccccc ccccc
%c cc cc ccc ccc cccc cccc cccc cccc ccccc ccccc ccccc ccccc
%f  0.0000000  0.000000000  0.00000000000  0.000000000000000
%f  0.0000000  0.000000000  0.00000000000  0.000000000000000
%i    0    0    0    0      0      0      0      0         0
%i    0    0    0    0      0      0      0      0         0
/*      NGA, ST. LOUIS,MO.                                  
/*   EPHEMERIS COMPUTED FROM  3 DAYS OF DATA                
/* CCCCCCCCCCCCCCCCCCCCCCCCCCCCCCCCCCCCCCCCCCCCCCCCCCCCCCCCC
/* CCCCCCCCCCCCCCCCCCCCCCCCCCCCCCCCCCCCCCCCCCCCCCCCCCCCCCCCC
*  2007 12 21 15 30   .00000000                                                 
P  1  19523.274882  18031.691229   1367.222665    173.957681                    
V  1  -2270.547980    400.851230  32295.429126       .023484                    
P  2 -13494.961644 -10837.810280 -20410.929469    160.095026                    
V  2   4136.414688 -25157.737203  10404.927559       .029262                    
P  3  24142.404195   9657.729228   5997.503574    161.452893                    
V  3   4850.256102   7153.918498 -29478.200582       .054268                    
P  4  -7236.184506 -21157.866718 -14133.875213    -40.058464                    
V  4   5330.756301 -17399.998781  23826.609763      -.052767                    
P  5 -19182.434694  16537.743077  -8016.668741    608.275730                    
V  5 -10280.310915   1677.823094  29148.112414       .195187                    
P  6  -4883.688174  15481.950874 -20838.668959    182.222083                    
V  6 -22414.473137 -15047.226710  -5900.382682      -.129587                    
P  7   -724.690974  17216.239037 -19874.363497    -14.702308                    
V  7 -22366.415087 -13469.800242 -10702.080186       .382264                    
P  8   -332.071025 -25224.351732   7404.366120   -134.209640                    
V  8   4151.792059  -9021.522676 -30617.900494      -.012954                    
P  9 -13579.529119  13378.181048  17805.397839    102.031891                    
V  9    615.405186 -23958.569907  18037.128399       .017135                    
P 10 -23363.720990   -724.302822 -13042.441634   -180.857466                    
V 10  14494.814141  -7526.895145 -25465.542914      -.118429                    
P 11  12779.907202 -15854.103230  16756.624490     26.698274                    
V 11   4120.248422  21757.382937  17622.909876       .001905                    
P 12 -23333.345021  12119.360982  -3388.781453   -352.048620                    
V 12  -5150.446918   -904.474743  31459.894283      -.011100                    
P 13   2932.168050 -15659.183391 -21360.129558    229.320340                    
V 13  20797.654012  16885.959176  -9544.080972       .024062                    
P 14  12834.460138  20279.811567  11583.218662   -311.504502                    
V 14 -12201.830468  -7940.680290  27573.620504       .027676                    
P 15 -21120.854245  -1826.069610  16018.356597    -70.931287                    
V 15 -15001.533829 -13824.440465 -21411.476083       .006507                    
P 16  20392.643407   4293.985058 -16494.667732    129.629493                    
V 16 -18943.695986   9223.993013 -20760.155583       .012254                    
P 17 -12146.820644 -20381.499585  12105.781824     46.094993                    
V 17  13422.065997   7675.177938  26283.132422      -.008693                    
P 18  -9733.895274  17128.894799  17816.721467   -217.794888                    
V 18 -21751.217912   5901.506594 -18068.932326       .025824                    
P 19  20826.289323   3029.936881  16379.786437     13.116743                    
V 19  14208.276627  15015.804692 -20793.106095       .018044                    
P 20  21659.229364 -14082.321722  -6168.932581    124.080646                    
V 20   8300.329807   -230.618914  30227.322000      -.007076                    
P 21  -5625.389412  25540.290817  -1941.924291     74.913564                    
V 21  -3572.651629  -3319.573983 -31488.838568      -.005812                    
P 22   5111.743512  14706.766356  21678.327438    205.550021                    
V 22 -25609.055882   9152.031787   -210.160632       .006663                    
P 23  14962.971360  -6598.511123 -21037.754863    319.807278                    
V 23  20554.089925  16716.379081   9177.518630       .031958                    
P 24 -12720.458616  19739.358981 -12506.209647     55.796515                    
V 24    694.133881 -16221.080376 -25648.819602       .032096                    
P 25   6843.591053 -24185.855851  -8456.468262    493.187083                    
V 25   2058.539097  11288.036070 -29197.882511       .037232                    
P 26 -21740.768809  -6540.767252  13772.437866    132.466822                    
V 26 -13029.602652 -12476.255717 -25111.222245       .112850                    
P 27   3141.558731 -26153.248288  -1760.671401    155.633008                    
V 27   2584.059166   3250.602238 -31927.691023       .024423                    
P 28  -2172.952559 -15432.075035  21832.083758    -12.405722                    
V 28  25319.592241  -9128.467927  -4342.146659      -.006727                    
P 30 -14778.163814  17533.801670 -13648.739382     56.942296                    
V 30 -16367.629279   4736.678398  24500.766341       .014743                    
P 31   8367.497025  19539.175456 -15668.127206     -2.259990                    
V 31  -4577.913522  19867.806608  22122.054182      -.015503                    
P 32  14235.396900  10123.646487  20422.449315    178.442110                    
V 32 -23477.501619   8429.253495  12625.440455       .117084                    
EOF
